[{"OBJECT_NAME":"TIANMU-1 10","OBJECT_ID":"2023-101D","EPOCH":"2026-03-09T23:06:46.939392","MEAN_MOTION":15.2921896,"ECCENTRICITY":0.00069292,"INCLINATION":97.2749,"RA_OF_ASC_NODE":122.1027,"ARG_OF_PERICENTER":133.6162,"MEAN_ANOMALY":226.5654,"EPHEMERIS_TYPE":0,"CLASSIFICATION_TYPE":"U","NORAD_CAT_ID":57402,"ELEMENT_SET_NO":999,"REV_AT_EPOCH":14647,"BSTAR":0.00032238884,"MEAN_MOTION_DOT":9.075e-5,"MEAN_MOTION_DDOT":0},{"OBJECT_NAME":"STARLINK-32798","OBJECT_ID":"2025-034A","EPOCH":"2026-03-09T20:24:32.546016","MEAN_MOTION":15.30200436,"ECCENTRICITY":8.224e-5,"INCLINATION":53.1575,"RA_OF_ASC_NODE":270.007,"ARG_OF_PERICENTER":70.6061,"MEAN_ANOMALY":289.5028,"EPHEMERIS_TYPE":0,"CLASSIFICATION_TYPE":"U","NORAD_CAT_ID":63029,"ELEMENT_SET_NO":999,"REV_AT_EPOCH":5893,"BSTAR":0.0010128444,"MEAN_MOTION_DOT":0.00029759,"MEAN_MOTION_DDOT":0}]
